SOYUZ-MS 28             
1 66664U 25275A   25344.15480881  .00014816  00000+0  27210-3 0  9996
2 66664  51.6306 155.2782 0003395 228.7831 131.2865 15.49465630  2047
1998-067XS              
1 66906U 98067XS  25344.02220671  .00036365  00000+0  63424-3 0  9999
2 66906  51.6303 155.8936 0003912 190.7132 169.3774 15.50350034  1196
1998-067XT              
1 66907U 98067XT  25343.50529068  .00076342  00000+0  12921-2 0  9998
2 66907  51.6307 158.4423 0004803 208.5081 151.5646 15.50864429  1113
1998-067XU              
1 66908U 98067XU  25344.47157028  .00088864  00000+0  14890-2 0  9998
2 66908  51.6304 153.6446 0004812 212.6459 147.4233 15.51078724  1266
SILVERSAT               
1 66909U 98067XV  25343.82707982  .00091886  00000+0  15400-2 0  9993
2 66909  51.6304 156.8402 0004876 210.6196 149.4510 15.51056405  1161
1998-067XW              
1 66910U 98067XW  25344.47007596  .00083191  00000+0  13818-2 0  9992
2 66910  51.6299 153.6350 0005542 197.1967 162.8836 15.51350337  1261
1998-067XX              
1 66911U 98067XX  25343.11695649  .00085582  00000+0  14246-2 0  9997
2 66911  51.6296 160.3494 0005703 191.2268 168.8595 15.51276485  1046
1998-067XY              
1 66912U 98067XY  25342.79680750  .00056065  00000+0  96272-3 0  9992
2 66912  51.6301 161.9610 0005043 202.8278 157.2488 15.50590071   993
